OBJECT_NAME,OBJECT_ID,EPOCH,MEAN_MOTION,ECCENTRICITY,INCLINATION,RA_OF_ASC_NODE,ARG_OF_PERICENTER,MEAN_ANOMALY,EPHEMERIS_TYPE,CLASSIFICATION_TYPE,NORAD_CAT_ID,ELEMENT_SET_NO,REV_AT_EPOCH,BSTAR,MEAN_MOTION_DOT,MEAN_MOTION_DDOT
MAUVE,2025-276CU,2026-06-01T04:48:43.985376,15.20423217,.00024024,97.4210,226.1857,53.8945,306.2513,0,U,66756,999,2800,.37073868E-3,.8019E-4,0
PIAST-S2,2025-276CV,2026-06-01T04:34:18.225408,15.20319328,.0002294,97.4221,226.2217,53.6088,306.5359,0,U,66757,999,2800,.29051517E-3,.6248E-4,0
PIAST-M,2025-276CW,2026-06-01T03:19:05.366784,15.20091685,.00020814,97.4191,226.0674,66.9753,293.1701,0,U,66758,999,2799,.3040797E-3,.65E-4,0
TRANSPORTER-15 OBJECT CX,2025-276CX,2026-05-31T16:43:51.716640,15.20732843,.00018234,97.4173,225.7041,52.5544,307.5857,0,U,66759,999,2793,.37349837E-3,.8152E-4,0
TRANSPORTER-15 OBJECT CY,2025-276CY,2026-05-31T23:55:22.783008,15.20113986,.0001518,97.4195,225.9593,73.8449,286.2954,0,U,66760,999,2797,.26877802E-3,.5741E-4,0
TRANSPORTER-15 OBJECT CZ,2025-276CZ,2026-06-01T03:13:54.705216,15.22020151,.00012873,97.4190,226.3786,72.4801,287.6576,0,U,66761,999,2801,.4643365E-3,.10546E-3,0
HYDROGNSS-1,2025-276DA,2026-05-31T18:46:26.793120,15.11367481,.00126921,97.4205,224.7611,105.7381,254.5250,0,U,66762,999,2787,.20168518E-3,.3346E-4,0
HYDROGNSS-2,2025-276DB,2026-06-01T03:33:20.827872,15.11520958,.00130477,97.4205,225.0465,57.6700,302.5792,0,U,66763,999,2792,.24626397E-3,.4117E-4,0
NAHLA,2025-276DC,2026-05-31T18:34:18.915456,15.18801214,.00038413,97.4205,225.5191,54.1083,306.0507,0,U,66764,999,2792,.15776639E-3,.3215E-4,0
TRANSPORTER-15 OBJECT DD,2025-276DD,2026-06-01T04:07:24.426336,15.23285933,.00012628,97.4221,226.6912,103.9154,256.2223,0,U,66765,999,2803,.61902035E-3,.14626E-3,0
T.MICROSAT-1,2025-276DE,2026-06-01T03:39:38.245536,15.20627457,.00012732,97.4169,226.1330,123.0748,237.0610,0,U,66766,999,2800,.315453E-3,.6852E-4,0
ACCENTURE-1,2025-276DF,2026-05-31T17:45:52.015104,15.19845258,.00012297,97.4169,225.6255,113.0999,247.0366,0,U,66767,999,2793,.23071529E-3,.4879E-4,0
LEMUR-2-TEODOR,2025-276DG,2026-06-01T04:39:47.995200,15.20860324,.00015929,97.4157,226.2097,125.7056,234.4328,0,U,66768,999,2801,.29116086E-3,.6362E-4,0
SPEQTRE,2025-276DH,2026-06-01T04:00:43.171776,15.20338087,.00004508,97.4212,226.2344,70.6892,289.4392,0,U,66769,999,2800,.25133431E-3,.5399E-4,0
LILIUM-3,2025-276DJ,2026-06-01T00:35:10.987008,15.19426549,.00011584,97.4249,226.0507,10.3188,349.8070,0,U,66770,999,2797,.14356131E-3,.2973E-4,0
GYEONGGISAT-1,2025-276DK,2026-06-01T03:43:34.976352,15.20544760,.00004829,97.4240,226.3142,17.9056,342.2196,0,U,66771,999,2800,.32502755E-3,.7045E-4,0
IHI-SAT2,2025-276DL,2026-06-01T03:58:23.471616,15.21218259,.00003467,97.4239,226.4403,155.3927,204.7325,0,U,66772,999,2801,.34305753E-3,.7589E-4,0
TRANSPORTER-15 OBJECT DM,2025-276DM,2026-06-01T03:47:49.614432,15.20373344,.00001616,97.4225,226.2780,169.0945,191.0294,0,U,66773,999,2800,.26183913E-3,.5633E-4,0
GENA-OT,2025-276DN,2026-05-31T17:31:21.239616,15.20908350,.00002689,97.4213,225.8982,132.6854,227.4404,0,U,66774,999,2794,.34190534E-3,.7495E-4,0
PHI 1,2025-276DP,2026-06-01T04:17:00.417120,15.21094928,.00018116,97.4134,226.1888,153.2024,206.9306,0,U,66775,999,2801,.32121851E-3,.7076E-4,0
LEMUR-2-LAILA,2025-276DQ,2026-05-31T17:02:27.248640,15.21071491,.00010581,97.4182,225.8430,151.6556,208.4737,0,U,66776,999,2794,.32129867E-3,.7072E-4,0
LUNA-1,2025-276DR,2026-05-31T18:12:40.262976,15.22419086,.00004829,97.4262,226.2866,262.2182,97.9000,0,U,66777,999,2796,.51064957E-3,.11743E-3,0
FORESAIL-1 PRIME,2025-276DS,2026-05-31T18:53:47.243904,15.18537703,.000345,97.4206,225.3599,138.4443,221.7054,0,U,66778,999,2791,.28292401E-3,.5776E-4,0
FOSSASAT-2E22,2025-276DU,2026-05-31T17:14:59.830656,15.18304777,.00056589,97.4190,225.2370,179.6982,180.4256,0,U,66779,999,2790,.21100363E-3,.4262E-4,0
FOSSASAT-2E24,2025-276DV,2026-06-01T03:15:33.892416,15.18768464,.00047666,97.4178,225.7393,167.2727,192.8629,0,U,66780,999,2797,.20928335E-3,.4284E-4,0
LEMUR-2-CELIJO-SB-PK,2025-276DW,2026-05-31T18:11:58.963776,14.99752435,.0008526,97.5289,223.0721,173.7344,186.3988,0,U,66781,999,2016,.74737914E-3,.919E-4,0
LEMUR-2-FINNIAN,2025-276DX,2026-06-01T03:21:24.371424,15.00156920,.00079688,97.5251,223.6471,138.0296,222.1540,0,U,66782,999,1759,.63717837E-3,.7908E-4,0
LEMUR-2-STARLIGHT,2025-276DY,2026-06-01T03:34:19.036416,14.98847891,.00149223,97.5268,223.3340,175.7902,184.3449,0,U,66783,999,2779,.66691009E-3,.8014E-4,0
LEMUR-2-TARTIFLETTE,2025-276DZ,2026-06-01T03:32:28.266432,14.98852461,.00135958,97.5267,223.3379,182.2402,177.8763,0,U,66784,999,2779,.79788749E-3,.9599E-4,0
LEMUR-2-VUKASIN,2025-276EA,2026-05-31T18:07:01.117920,15.00157932,.00059955,97.5305,223.2171,164.8480,195.2925,0,U,66785,999,2768,.67950421E-3,.8436E-4,0
LEMUR-2-HOTSPUR-TOM,2025-276EB,2026-06-01T03:19:55.403616,14.98738212,.00147702,97.5241,223.3178,179.2284,180.8964,0,U,66786,999,2772,.66862501E-3,.8012E-4,0
LEMUR-2-MYRA,2025-276EC,2026-05-31T17:14:02.692608,15.00013500,.00145163,97.5229,223.1407,196.5811,163.4940,0,U,66787,999,2774,.61862339E-3,.7658E-4,0
FOSSASA-2E23,2025-276ED,2026-06-01T04:04:51.391200,15.21321794,.00062245,97.4250,226.1041,166.3732,193.7673,0,U,66788,999,2799,.44355231E-3,.9869E-4,0
STARLINK-35867,2025-278A,2026-05-31T23:41:58.449120,15.27625597,.00030636,43.0081,4.3709,289.2133,70.8387,0,U,66791,999,2794,.89960114E-3,.24612E-3,0
STARLINK-35990,2025-278B,2026-06-01T00:05:49.101792,15.27594187,.00012696,43.0011,3.6226,267.9636,92.1070,0,U,66792,999,2795,.69797975E-3,.19003E-3,0
STARLINK-36051,2025-278C,2026-05-31T23:10:31.112832,15.27591028,.00019394,43.0002,4.1928,239.0192,121.0469,0,U,66793,999,2794,.72215989E-3,.1967E-3,0
STARLINK-36062,2025-278D,2026-05-30T23:47:25.429056,15.27605246,.00014035,43.0031,9.7843,266.0583,94.0108,0,U,66794,999,2779,.64771602E-3,.17618E-3,0
STARLINK-36047,2025-278E,2026-05-31T23:08:40.286688,15.27594218,.00017617,43.0046,4.1870,267.5312,92.5338,0,U,66795,999,2794,.91899787E-3,.25124E-3,0
STARLINK-35964,2025-278F,2026-05-31T23:13:00.564096,15.27609584,.00016442,43.0001,349.1607,274.4892,85.5772,0,U,66796,999,2811,.11768502E-2,.32294E-3,0
STARLINK-36099,2025-278G,2026-05-31T22:57:33.942240,15.27597570,.00020772,43.0048,4.1264,268.6224,91.4389,0,U,66797,999,2794,.81337703E-3,.222E-3,0
STARLINK-36041,2025-278H,2026-05-31T23:23:28.394880,15.27590280,.00014948,43.0046,4.2615,276.2371,83.8311,0,U,66798,999,2794,.77419316E-3,.2111E-3,0
STARLINK-36044,2025-278J,2026-05-31T22:27:57.310272,15.27612821,.00020643,43.0029,3.9678,265.8025,94.2591,0,U,66799,999,2794,.11556373E-2,.31708E-3,0
STARLINK-35996,2025-278K,2026-05-31T23:54:43.494336,15.27639080,.00022945,43.0033,3.5600,266.5495,93.5094,0,U,66800,999,2795,.15535293E-2,.42815E-3,0
STARLINK-36080,2025-278L,2026-05-31T22:05:56.798592,15.27680092,.00025843,43.0061,4.7185,267.1303,92.9253,0,U,66801,999,2793,.22639766E-2,.62764E-3,0
STARLINK-35604,2025-278M,2026-05-31T21:41:54.769632,15.27595609,.00013255,43.0044,4.5898,284.2549,75.8156,0,U,66802,999,2793,.71818965E-3,.19563E-3,0
STARLINK-35565,2025-278N,2026-05-31T23:25:19.457760,15.27583940,.00016252,42.9999,4.2745,273.0913,86.9753,0,U,66803,999,2794,.76480993E-3,.20846E-3,0
STARLINK-36038,2025-278P,2026-05-31T22:37:12.826848,15.27595230,.00019809,42.9999,4.0208,276.8465,83.2162,0,U,66804,999,2794,.8457127E-3,.23094E-3,0
STARLINK-36049,2025-278Q,2026-05-31T23:29:01.516128,15.27602892,.00014767,43.0046,4.2942,292.5531,67.5164,0,U,66805,999,2794,.11662555E-2,.31992E-3,0
STARLINK-36069,2025-278R,2026-05-31T23:34:34.550976,15.27606638,.00018747,43.0043,4.3213,275.6627,84.4011,0,U,66806,999,2794,.91885578E-3,.2513E-3,0
STARLINK-36000,2025-278S,2026-05-31T22:42:45.739008,15.27595628,.00022107,43.0014,4.0495,280.6608,79.3994,0,U,66807,999,2794,.91847157E-3,.25111E-3,0
STARLINK-36071,2025-278T,2026-05-31T23:45:27.976896,15.27598956,.00018134,43.0036,3.5125,277.8567,82.2079,0,U,66808,999,2795,.95156769E-3,.26031E-3,0
STARLINK-35979,2025-278U,2026-05-31T23:36:26.165952,15.27586773,.0002814,43.0034,4.3261,253.6609,106.3933,0,U,66809,999,2794,.11954171E-2,.32788E-3,0
STARLINK-36046,2025-278V,2026-05-31T23:14:13.244640,15.27589438,.00013922,43.0052,4.2036,258.3055,101.7640,0,U,66810,999,2794,.69769639E-3,.18992E-3,0
STARLINK-36045,2025-278W,2026-05-31T23:03:06.922656,15.27590789,.0002134,43.0040,4.1515,270.2879,89.7728,0,U,66811,999,2794,.82631307E-3,.22554E-3,0
STARLINK-36054,2025-278X,2026-05-31T22:59:24.784800,15.27598513,.00025155,43.0057,4.1315,275.2096,84.8469,0,U,66812,999,2794,.6726026E-3,.18303E-3,0
STARLINK-36042,2025-278Y,2026-05-31T23:56:33.819360,15.27592454,.00014821,43.0021,3.5662,263.2837,96.7846,0,U,66813,999,2795,.9046365E-3,.24724E-3,0
STARLINK-35984,2025-278Z,2026-06-01T00:00:16.009920,15.27588498,.00012213,43.0010,3.5847,268.7969,91.2743,0,U,66814,999,2795,.57837716E-3,.15692E-3,0
STARLINK-35985,2025-278AA,2026-06-01T00:28:01.010496,15.27593836,.00015812,43.0048,3.7291,252.6361,107.4318,0,U,66815,999,2916,.6650989E-3,.18093E-3,0
STARLINK-36098,2025-278AB,2026-05-31T23:47:18.937824,15.27597757,.0001755,43.0030,3.5188,286.0078,74.0580,0,U,66816,999,2795,.89730967E-3,.24526E-3,0
STARLINK-35995,2025-278AC,2026-06-01T00:22:28.471584,15.27600882,.00014097,43.0011,3.7067,269.0926,90.9764,0,U,66817,999,2795,.11519283E-2,.31593E-3,0
STARLINK-35994,2025-278AD,2026-06-01T00:26:10.457376,15.27590979,.00015225,43.0018,3.7285,259.9877,100.0803,0,U,66818,999,2795,.11126006E-2,.30491E-3,0
STARLINK-35989,2025-278AE,2026-05-31T23:04:57.906048,15.27593193,.00014391,43.0048,4.1532,264.8796,95.1892,0,U,66819,999,2794,.81978907E-3,.22374E-3,0
KOMPSAT-7,2025-279A,2026-05-31T20:58:13.838592,15.00267333,.00105539,97.7020,100.5776,64.1452,296.0859,0,U,66820,999,2717,.25865089E-3,.3183E-4,0
STARLINK-35966,2025-280A,2026-06-01T05:20:51.717984,14.98324102,.00037717,69.9982,124.0301,268.4655,91.6072,0,U,66821,999,2858,.21192469E-3,.2436E-4,0
